{
  "norad_id": 66242,
  "name": "STARLINK-35480",
  "history": [
    {
      "epoch": "2026-03-28T16:58:03.812448Z",
      "apogee_km": 475.99699192875414,
      "perigee_km": 474.3527453452307,
      "latitude_deg": -1.9652459857136151e-07,
      "longitude_deg": 115.24143907003294,
      "height_km": 476.03262578294647,
      "semi_major_axis_km": 6853.311868636993,
      "eccentricity": 0.00011996,
      "inclination_deg": 53.1591,
      "raan_deg": 195.8809,
      "arg_perigee_deg": 87.1885,
      "mean_anomaly_deg": 272.9253,
      "mean_motion_rev_day": 15.30213464
    },
    {
      "epoch": "2026-03-30T00:19:07.956192Z",
      "apogee_km": 476.1518284961576,
      "perigee_km": 474.2466010284543,
      "latitude_deg": -3.783110959933012e-05,
      "longitude_deg": -2.3814001819797297,
      "height_km": 476.0203491954198,
      "semi_major_axis_km": 6853.336214762306,
      "eccentricity": 0.000139,
      "inclination_deg": 53.1603,
      "raan_deg": 189.8129,
      "arg_perigee_deg": 85.3744,
      "mean_anomaly_deg": 274.7415,
      "mean_motion_rev_day": 15.3020531
    },
    {
      "epoch": "2026-03-30T00:19:07.957056Z",
      "apogee_km": 476.1520340962443,
      "perigee_km": 474.2463954283676,
      "latitude_deg": -4.059002940921002e-05,
      "longitude_deg": -2.381405847326115,
      "height_km": 476.020332615416,
      "semi_major_axis_km": 6853.336214762306,
      "eccentricity": 0.00013903,
      "inclination_deg": 53.1603,
      "raan_deg": 189.8129,
      "arg_perigee_deg": 85.3744,
      "mean_anomaly_deg": 274.7415,
      "mean_motion_rev_day": 15.3020531
    },
    {
      "epoch": "2026-03-30T12:51:33.630624Z",
      "apogee_km": 476.32937633795154,
      "perigee_km": 474.0084357598089,
      "latitude_deg": -7.489977078092277e-07,
      "longitude_deg": 166.57033264722554,
      "height_km": 475.96539382520115,
      "semi_major_axis_km": 6853.3059060488795,
      "eccentricity": 0.00016933,
      "inclination_deg": 53.1607,
      "raan_deg": 187.3866,
      "arg_perigee_deg": 85.0027,
      "mean_anomaly_deg": 275.1167,
      "mean_motion_rev_day": 15.30215461
    },
    {
      "epoch": "2026-03-31T12:22:21.571680Z",
      "apogee_km": 476.5536893105573,
      "perigee_km": 473.86786231721726,
      "latitude_deg": 6.12939111484011e-05,
      "longitude_deg": 168.3533681167861,
      "height_km": 476.13245606592994,
      "semi_major_axis_km": 6853.347775813887,
      "eccentricity": 0.00019595,
      "inclination_deg": 53.1605,
      "raan_deg": 182.835,
      "arg_perigee_deg": 91.047,
      "mean_anomaly_deg": 269.0756,
      "mean_motion_rev_day": 15.30201438
    },
    {
      "epoch": "2026-04-01T05:36:57.091968Z",
      "apogee_km": 476.05445441062693,
      "perigee_km": 474.3383797229926,
      "latitude_deg": -1.7797550824768195e-05,
      "longitude_deg": -94.33844410288238,
      "height_km": 476.08596566983823,
      "semi_major_axis_km": 6853.3334170668095,
      "eccentricity": 0.0001252,
      "inclination_deg": 53.163,
      "raan_deg": 179.4994,
      "arg_perigee_deg": 89.4071,
      "mean_anomaly_deg": 270.7073,
      "mean_motion_rev_day": 15.30206247
    },
    {
      "epoch": "2026-04-02T14:32:03.435648Z",
      "apogee_km": 476.115306931325,
      "perigee_km": 474.3002670979331,
      "latitude_deg": 1.2169630046975653e-05,
      "longitude_deg": 124.16173575677982,
      "height_km": 475.5303360109453,
      "semi_major_axis_km": 6853.344787014629,
      "eccentricity": 0.00013242,
      "inclination_deg": 53.1609,
      "raan_deg": 173.1279,
      "arg_perigee_deg": 50.6052,
      "mean_anomaly_deg": 309.5066,
      "mean_motion_rev_day": 15.30202439
    },
    {
      "epoch": "2026-04-02T22:22:19.267680Z",
      "apogee_km": 476.2995652532072,
      "perigee_km": 474.0172808114294,
      "latitude_deg": 3.665087219883375e-05,
      "longitude_deg": 4.756003245306952,
      "height_km": 475.64395888040553,
      "semi_major_axis_km": 6853.2954230323185,
      "eccentricity": 0.00016651,
      "inclination_deg": 53.1599,
      "raan_deg": 171.61,
      "arg_perigee_deg": 68.828,
      "mean_anomaly_deg": 291.2899,
      "mean_motion_rev_day": 15.30218972
    },
    {
      "epoch": "2026-04-03T14:02:51.567648Z",
      "apogee_km": 476.44242461359136,
      "perigee_km": 474.38087717940107,
      "latitude_deg": -1.9971513492332204e-05,
      "longitude_deg": 125.94370224849686,
      "height_km": 476.00486483544813,
      "semi_major_axis_km": 6853.548650896496,
      "eccentricity": 0.0001504,
      "inclination_deg": 53.1585,
      "raan_deg": 168.5761,
      "arg_perigee_deg": 72.8207,
      "mean_anomaly_deg": 287.2958,
      "mean_motion_rev_day": 15.30134164
    },
    {
      "epoch": "2026-04-04T11:59:37.109184Z",
      "apogee_km": 476.19356713479283,
      "perigee_km": 474.18197924736523,
      "latitude_deg": 1.2222105103031363e-05,
      "longitude_deg": 151.60327980219319,
      "height_km": 475.84286478543373,
      "semi_major_axis_km": 6853.324773191079,
      "eccentricity": 0.00014676,
      "inclination_deg": 53.1584,
      "raan_deg": 164.3267,
      "arg_perigee_deg": 76.0422,
      "mean_anomaly_deg": 284.0742,
      "mean_motion_rev_day": 15.30209142
    },
    {
      "epoch": "2026-04-05T11:30:25.209216Z",
      "apogee_km": 476.2810687310839,
      "perigee_km": 474.1699589423206,
      "latitude_deg": -1.993632796542583e-05,
      "longitude_deg": 153.38927827867442,
      "height_km": 475.83172422233525,
      "semi_major_axis_km": 6853.3625138367015,
      "eccentricity": 0.00015402,
      "inclination_deg": 53.1574,
      "raan_deg": 159.7788,
      "arg_perigee_deg": 73.9802,
      "mean_anomaly_deg": 286.1368,
      "mean_motion_rev_day": 15.30196502
    },
    {
      "epoch": "2026-04-06T04:44:59.541504Z",
      "apogee_km": 476.17924244533697,
      "perigee_km": 474.07762006818757,
      "latitude_deg": 4.047523871369744e-05,
      "longitude_deg": -109.2989688427833,
      "height_km": 475.8072641167004,
      "semi_major_axis_km": 6853.265431256762,
      "eccentricity": 0.00015333,
      "inclination_deg": 53.1573,
      "raan_deg": 156.4417,
      "arg_perigee_deg": 77.9907,
      "mean_anomaly_deg": 282.1266,
      "mean_motion_rev_day": 15.30229017
    },
    {
      "epoch": "2026-04-07T10:32:00.439872Z",
      "apogee_km": 476.0926339417383,
      "perigee_km": 474.3857320695997,
      "latitude_deg": -1.6767051209413606e-06,
      "longitude_deg": 156.95998498655874,
      "height_km": 475.92897956841983,
      "semi_major_axis_km": 6853.376183005669,
      "eccentricity": 0.00012453,
      "inclination_deg": 53.1572,
      "raan_deg": 150.6776,
      "arg_perigee_deg": 75.8896,
      "mean_anomaly_deg": 284.2243,
      "mean_motion_rev_day": 15.30191924
    },
    {
      "epoch": "2026-04-08T13:10:54.826752Z",
      "apogee_km": 476.1141081202586,
      "perigee_km": 474.289612248901,
      "latitude_deg": 3.696213311649105e-05,
      "longitude_deg": 110.98108586017817,
      "height_km": 476.0149495660496,
      "semi_major_axis_km": 6853.33886018458,
      "eccentricity": 0.00013311,
      "inclination_deg": 53.1574,
      "raan_deg": 145.5197,
      "arg_perigee_deg": 84.6771,
      "mean_anomaly_deg": 275.4382,
      "mean_motion_rev_day": 15.30204424
    },
    {
      "epoch": "2026-04-09T20:31:58.650816Z",
      "apogee_km": 476.1259261717296,
      "perigee_km": 474.2755249858237,
      "latitude_deg": -2.6091494089165992e-05,
      "longitude_deg": -6.641240977166992,
      "height_km": 476.07166756119426,
      "semi_major_axis_km": 6853.337725578776,
      "eccentricity": 0.000135,
      "inclination_deg": 53.1581,
      "raan_deg": 139.4509,
      "arg_perigee_deg": 88.3385,
      "mean_anomaly_deg": 271.777,
      "mean_motion_rev_day": 15.30204804
    },
    {
      "epoch": "2026-04-10T09:04:24.137760Z",
      "apogee_km": 476.061403267021,
      "perigee_km": 474.3398448558564,
      "latitude_deg": 3.954056649740845e-05,
      "longitude_deg": 162.31089453866085,
      "height_km": 476.0638793861537,
      "semi_major_axis_km": 6853.337624061438,
      "eccentricity": 0.0001256,
      "inclination_deg": 53.1589,
      "raan_deg": 137.0242,
      "arg_perigee_deg": 87.6884,
      "mean_anomaly_deg": 272.4261,
      "mean_motion_rev_day": 15.30204838
    },
    {
      "epoch": "2026-04-11T11:43:18.630048Z",
      "apogee_km": 476.1149683036265,
      "perigee_km": 474.32898295457744,
      "latitude_deg": -7.014342840457115e-05,
      "longitude_deg": 116.33284559544134,
      "height_km": 476.08091543763317,
      "semi_major_axis_km": 6853.358975629102,
      "eccentricity": 0.0001303,
      "inclination_deg": 53.1594,
      "raan_deg": 131.8677,
      "arg_perigee_deg": 87.4945,
      "mean_anomaly_deg": 272.6204,
      "mean_motion_rev_day": 15.30197687
    },
    {
      "epoch": "2026-04-13T07:36:48.092256Z",
      "apogee_km": 476.2313869083291,
      "perigee_km": 474.1834705261408,
      "latitude_deg": 1.9662272539750593e-05,
      "longitude_deg": 167.66089162249858,
      "height_km": 476.1546399697407,
      "semi_major_axis_km": 6853.344428717235,
      "eccentricity": 0.00014941,
      "inclination_deg": 53.1607,
      "raan_deg": 123.371,
      "arg_perigee_deg": 92.7637,
      "mean_anomaly_deg": 267.3535,
      "mean_motion_rev_day": 15.30202559
    },
    {
      "epoch": "2026-04-14T18:05:57.899904Z",
      "apogee_km": 475.9787478164926,
      "perigee_km": 474.45456196364466,
      "latitude_deg": -1.1765383799852495e-05,
      "longitude_deg": 2.2783124852146877,
      "height_km": 476.2122927871936,
      "semi_major_axis_km": 6853.353654890068,
      "eccentricity": 0.0001112,
      "inclination_deg": 53.1612,
      "raan_deg": 116.6956,
      "arg_perigee_deg": 97.3282,
      "mean_anomaly_deg": 262.7845,
      "mean_motion_rev_day": 15.30199469
    }
  ]
}